{
  "type": "FeatureCollection",
  "features": [
    {
      "type": "Feature",
      "properties": {
        "norad_id": 37533,
        "name": "COSMOS 2251 DEB",
        "group": "cosmos-2251-debris",
        "lat": -33.236423984781304,
        "lon": 13.64517935274768,
        "alt_km": 752.9278057595275,
        "timestamp": "2025-12-17T19:34:08.435521+00:00",
        "meta_object_name": "COSMOS 2251 DEB",
        "meta_object_id": "1993-036BNN",
        "meta_epoch": "2025-12-17T06:38:38.162976",
        "meta_mean_motion": 14.12190824,
        "meta_eccentricity": 0.0157786,
        "meta_inclination": 74.0692,
        "meta_ra_of_asc_node": 183.8069,
        "meta_arg_of_pericenter": 239.4795,
        "meta_mean_anomaly": 119.0691,
        "meta_ephemeris_type": 0,
        "meta_classification_type": "U",
        "meta_norad_cat_id": 37533,
        "meta_element_set_no": 999,
        "meta_rev_at_epoch": 62985,
        "meta_bstar": 0.0010470743,
        "meta_mean_motion_dot": 2.138e-05,
        "meta_mean_motion_ddot": 0,
        "tle_line1": "1 37533U 93036BNN 25351.27683059  .00002138  00000+0  10471-2 0  9996",
        "tle_line2": "2 37533  74.0692 183.8069 0157786 239.4795 119.0691 14.12190824629858"
      },
      "geometry": {
        "type": "Point",
        "coordinates": [
          13.64517935274768,
          -33.236423984781304
        ]
      }
    },
    {
      "type": "Feature",
      "properties": {
        "norad_id": 37535,
        "name": "COSMOS 2251 DEB",
        "group": "cosmos-2251-debris",
        "lat": -72.47088127289705,
        "lon": -51.07900705488378,
        "alt_km": 695.4071167177153,
        "timestamp": "2025-12-17T19:34:08.435531+00:00",
        "meta_object_name": "COSMOS 2251 DEB",
        "meta_object_id": "1993-036BNQ",
        "meta_epoch": "2025-12-16T11:09:24.966720",
        "meta_mean_motion": 14.58483395,
        "meta_eccentricity": 0.00276052,
        "meta_inclination": 74.0246,
        "meta_ra_of_asc_node": 66.4041,
        "meta_arg_of_pericenter": 204.8824,
        "meta_mean_anomaly": 169.5593,
        "meta_ephemeris_type": 0,
        "meta_classification_type": "U",
        "meta_norad_cat_id": 37535,
        "meta_element_set_no": 999,
        "meta_rev_at_epoch": 85379,
        "meta_bstar": 0.00051799553,
        "meta_mean_motion_dot": 2.388e-05,
        "meta_mean_motion_ddot": 0,
        "tle_line1": "1 37535U 93036BNQ 25350.46487230  .00002388  00000+0  51800-3 0  9990",
        "tle_line2": "2 37535  74.0246  66.4041 0027605 204.8824 169.5593 14.58483395853797"
      },
      "geometry": {
        "type": "Point",
        "coordinates": [
          -51.07900705488378,
          -72.47088127289705
        ]
      }
    },
    {
      "type": "Feature",
      "properties": {
        "norad_id": 37537,
        "name": "COSMOS 2251 DEB",
        "group": "cosmos-2251-debris",
        "lat": 65.05881889956724,
        "lon": -66.16720170420658,
        "alt_km": 730.7995349366838,
        "timestamp": "2025-12-17T19:34:08.435541+00:00",
        "meta_object_name": "COSMOS 2251 DEB",
        "meta_object_id": "1993-036BNS",
        "meta_epoch": "2025-12-17T02:32:33.183168",
        "meta_mean_motion": 14.37497704,
        "meta_eccentricity": 0.00505171,
        "meta_inclination": 74.0117,
        "meta_ra_of_asc_node": 257.0786,
        "meta_arg_of_pericenter": 36.135,
        "meta_mean_anomaly": 324.3199,
        "meta_ephemeris_type": 0,
        "meta_classification_type": "U",
        "meta_norad_cat_id": 37537,
        "meta_element_set_no": 999,
        "meta_rev_at_epoch": 85096,
        "meta_bstar": 0.00019174307,
        "meta_mean_motion_dot": 5.56e-06,
        "meta_mean_motion_ddot": 0,
        "tle_line1": "1 37537U 93036BNS 25351.10593962  .00000556  00000+0  19174-3 0  9997",
        "tle_line2": "2 37537  74.0117 257.0786 0050517  36.1350 324.3199 14.37497704850963"
      },
      "geometry": {
        "type": "Point",
        "coordinates": [
          -66.16720170420658,
          65.05881889956724
        ]
      }
    },
    {
      "type": "Feature",
      "properties": {
        "norad_id": 37546,
        "name": "COSMOS 2251 DEB",
        "group": "cosmos-2251-debris",
        "lat": -34.76904332975648,
        "lon": -80.53844261993358,
        "alt_km": 635.1234313008681,
        "timestamp": "2025-12-17T19:34:08.435550+00:00",
        "meta_object_name": "COSMOS 2251 DEB",
        "meta_object_id": "1993-036BPB",
        "meta_epoch": "2025-12-16T23:08:14.868672",
        "meta_mean_motion": 14.80689154,
        "meta_eccentricity": 0.00053465,
        "meta_inclination": 74.0225,
        "meta_ra_of_asc_node": 89.6681,
        "meta_arg_of_pericenter": 93.2221,
        "meta_mean_anomaly": 266.9567,
        "meta_ephemeris_type": 0,
        "meta_classification_type": "U",
        "meta_norad_cat_id": 37546,
        "meta_element_set_no": 999,
        "meta_rev_at_epoch": 65950,
        "meta_bstar": 0.0019867347,
        "meta_mean_motion_dot": 0.00015285,
        "meta_mean_motion_ddot": 0,
        "tle_line1": "1 37546U 93036BPB 25350.96406098  .00015285  00000+0  19867-2 0  9996",
        "tle_line2": "2 37546  74.0225  89.6681 0005346  93.2221 266.9567 14.80689154659504"
      },
      "geometry": {
        "type": "Point",
        "coordinates": [
          -80.53844261993358,
          -34.76904332975648
        ]
      }
    },
    {
      "type": "Feature",
      "properties": {
        "norad_id": 37959,
        "name": "COSMOS 2251 DEB",
        "group": "cosmos-2251-debris",
        "lat": 0.07748220076584977,
        "lon": 47.295057420123854,
        "alt_km": 742.0035036599111,
        "timestamp": "2025-12-17T19:34:08.435560+00:00",
        "meta_object_name": "COSMOS 2251 DEB",
        "meta_object_id": "1993-036BPJ",
        "meta_epoch": "2025-12-16T04:11:40.477056",
        "meta_mean_motion": 14.58168105,
        "meta_eccentricity": 0.00576225,
        "meta_inclination": 74.0114,
        "meta_ra_of_asc_node": 50.3978,
        "meta_arg_of_pericenter": 192.4748,
        "meta_mean_anomaly": 198.948,
        "meta_ephemeris_type": 0,
        "meta_classification_type": "U",
        "meta_norad_cat_id": 37959,
        "meta_element_set_no": 999,
        "meta_rev_at_epoch": 80177,
        "meta_bstar": 0.00044823071,
        "meta_mean_motion_dot": 2.084e-05,
        "meta_mean_motion_ddot": 0,
        "tle_line1": "1 37959U 93036BPJ 25350.17477404  .00002084  00000+0  44823-3 0  9990",
        "tle_line2": "2 37959  74.0114  50.3978 0057622 192.4748 198.9480 14.58168105801772"
      },
      "geometry": {
        "type": "Point",
        "coordinates": [
          47.295057420123854,
          0.07748220076584977
        ]
      }
    },
    {
      "type": "Feature",
      "properties": {
        "norad_id": 37960,
        "name": "COSMOS 2251 DEB",
        "group": "cosmos-2251-debris",
        "lat": 19.746145529966032,
        "lon": -176.1139801410694,
        "alt_km": 1045.6586638561248,
        "timestamp": "2025-12-17T19:34:08.435570+00:00",
        "meta_object_name": "COSMOS 2251 DEB",
        "meta_object_id": "1993-036BPK",
        "meta_epoch": "2025-12-16T19:35:27.740256",
        "meta_mean_motion": 14.07867991,
        "meta_eccentricity": 0.02485393,
        "meta_inclination": 74.059,
        "meta_ra_of_asc_node": 179.7478,
        "meta_arg_of_pericenter": 197.3915,
        "meta_mean_anomaly": 161.86,
        "meta_ephemeris_type": 0,
        "meta_classification_type": "U",
        "meta_norad_cat_id": 37960,
        "meta_element_set_no": 999,
        "meta_rev_at_epoch": 77463,
        "meta_bstar": 0.00064570376,
        "meta_mean_motion_dot": 1.428e-05,
        "meta_mean_motion_ddot": 0,
        "tle_line1": "1 37960U 93036BPK 25350.81629329  .00001428  00000+0  64570-3 0  9990",
        "tle_line2": "2 37960  74.0590 179.7478 0248539 197.3915 161.8600 14.07867991774632"
      },
      "geometry": {
        "type": "Point",
        "coordinates": [
          -176.1139801410694,
          19.746145529966032
        ]
      }
    },
    {
      "type": "Feature",
      "properties": {
        "norad_id": 37961,
        "name": "COSMOS 2251 DEB",
        "group": "cosmos-2251-debris",
        "lat": 57.48905257842946,
        "lon": 154.13713370757108,
        "alt_km": 717.2490439386565,
        "timestamp": "2025-12-17T19:34:08.435580+00:00",
        "meta_object_name": "COSMOS 2251 DEB",
        "meta_object_id": "1993-036BPL",
        "meta_epoch": "2025-12-13T03:18:27.462240",
        "meta_mean_motion": 14.57979799,
        "meta_eccentricity": 0.00406759,
        "meta_inclination": 74.0407,
        "meta_ra_of_asc_node": 136.3488,
        "meta_arg_of_pericenter": 216.8805,
        "meta_mean_anomaly": 142.9561,
        "meta_ephemeris_type": 0,
        "meta_classification_type": "U",
        "meta_norad_cat_id": 37961,
        "meta_element_set_no": 999,
        "meta_rev_at_epoch": 80071,
        "meta_bstar": 0.001729191,
        "meta_mean_motion_dot": 8.011e-05,
        "meta_mean_motion_ddot": 0,
        "tle_line1": "1 37961U 93036BPL 25347.13781785  .00008011  00000+0  17292-2 0  9990",
        "tle_line2": "2 37961  74.0407 136.3488 0040675 216.8805 142.9561 14.57979799800716"
      },
      "geometry": {
        "type": "Point",
        "coordinates": [
          154.13713370757108,
          57.48905257842946
        ]
      }
    }
  ]
}